DryMass, ErgolMass, DV, ManeuverType, ISP
500
666600
2 13601 004.0000 003.0000 0000001 003.0000 003.0000 01.32587000000000
1 13601U 23001EAE 25040.66625000  .00030938  00000+0  12818-2 0  9996
500.00000

